STRIX-1                 
1 53815U 22113A   26202.28549664  .00018782  00000+0  45406-3 0  9994
2 53815  97.4470 264.9488 0005618 116.6305 243.5518 15.41183824212693
STRIX-3                 
1 59224U 24047A   26202.28690437  .00006686  00000+0  31436-3 0  9995
2 59224  97.6642 178.4812 0011346 311.5433  48.4828 15.19871183129925
STRIX-4                 
1 60352U 24137A   26202.09934334  .00015229  00000+0  46679-3 0  9993
2 60352  43.0150  91.9325 0016973 172.4344 187.6769 15.33449341109226
STRIX-2                 
1 62406U 24248A   26202.28761346  .00004619  00000+0  29376-3 0  9996
2 62406  97.6302 157.7403 0014201 212.8160 147.2188 15.09230150 86733
STRIX-5                 
1 65971U 25229A   26201.95917062  .00002687  00000+0  19876-3 0  9994
2 65971  41.9281 100.0962 0038057 273.9922  85.6554 15.04616463 42061
STRIX-6                 
1 68291U 26056A   26202.16373195  .00001451  00000+0  13512-3 0  9997
2 68291  50.2823 189.1600 0016611  14.1052 346.0358 15.00344395 18373
STRIX-7                 
1 69177U 26112A   26201.90288389  .00002489  00000+0  20526-3 0  9990
2 69177  44.9085  15.3401 0025221 238.6269 121.2135 15.01633466  8945
STRIX-8                 
1 69701U 26146A   26202.26030015  .00003339  00000+0  24791-3 0  9994
2 69701  41.9905 339.4943 0006446  67.3987 292.7521 15.04467399  3692
