{"fetched_at":"2026-07-21T17:53:54.778Z","source":"https://celestrak.org/NORAD/elements/gp.php?NAME=STRIX&FORMAT=JSON","constellation":"synspective","records":[{"OBJECT_NAME":"STRIX-1","OBJECT_ID":"2022-113A","EPOCH":"2026-07-21T06:51:06.909696","CLASSIFICATION_TYPE":"U","MEAN_MOTION":15.41183824,"ECCENTRICITY":0.0005618,"INCLINATION":97.447,"RA_OF_ASC_NODE":264.9488,"ARG_OF_PERICENTER":116.6305,"MEAN_ANOMALY":243.5518,"EPHEMERIS_TYPE":0,"NORAD_CAT_ID":53815,"ELEMENT_SET_NO":999,"REV_AT_EPOCH":21269,"BSTAR":0.00045405772,"MEAN_MOTION_DOT":0.00018782,"MEAN_MOTION_DDOT":0},{"OBJECT_NAME":"STRIX-3","OBJECT_ID":"2024-047A","EPOCH":"2026-07-21T06:53:08.537568","CLASSIFICATION_TYPE":"U","MEAN_MOTION":15.19871183,"ECCENTRICITY":0.00113464,"INCLINATION":97.6642,"RA_OF_ASC_NODE":178.4812,"ARG_OF_PERICENTER":311.5433,"MEAN_ANOMALY":48.4828,"EPHEMERIS_TYPE":0,"NORAD_CAT_ID":59224,"ELEMENT_SET_NO":999,"REV_AT_EPOCH":12992,"BSTAR":0.0003143628,"MEAN_MOTION_DOT":0.00006686,"MEAN_MOTION_DDOT":0},{"OBJECT_NAME":"STRIX-4","OBJECT_ID":"2024-137A","EPOCH":"2026-07-21T02:23:03.264576","CLASSIFICATION_TYPE":"U","MEAN_MOTION":15.33449341,"ECCENTRICITY":0.00169735,"INCLINATION":43.015,"RA_OF_ASC_NODE":91.9325,"ARG_OF_PERICENTER":172.4344,"MEAN_ANOMALY":187.6769,"EPHEMERIS_TYPE":0,"NORAD_CAT_ID":60352,"ELEMENT_SET_NO":999,"REV_AT_EPOCH":10922,"BSTAR":0.00046679369,"MEAN_MOTION_DOT":0.00015229,"MEAN_MOTION_DDOT":0},{"OBJECT_NAME":"STRIX-2","OBJECT_ID":"2024-248A","EPOCH":"2026-07-21T06:54:09.802944","CLASSIFICATION_TYPE":"U","MEAN_MOTION":15.0923015,"ECCENTRICITY":0.0014201,"INCLINATION":97.6302,"RA_OF_ASC_NODE":157.7403,"ARG_OF_PERICENTER":212.816,"MEAN_ANOMALY":147.2188,"EPHEMERIS_TYPE":0,"NORAD_CAT_ID":62406,"ELEMENT_SET_NO":999,"REV_AT_EPOCH":8673,"BSTAR":0.00029375863,"MEAN_MOTION_DOT":0.00004619,"MEAN_MOTION_DDOT":0},{"OBJECT_NAME":"STRIX-5","OBJECT_ID":"2025-229A","EPOCH":"2026-07-20T23:01:12.341568","CLASSIFICATION_TYPE":"U","MEAN_MOTION":15.04616463,"ECCENTRICITY":0.00380572,"INCLINATION":41.9281,"RA_OF_ASC_NODE":100.0962,"ARG_OF_PERICENTER":273.9922,"MEAN_ANOMALY":85.6554,"EPHEMERIS_TYPE":0,"NORAD_CAT_ID":65971,"ELEMENT_SET_NO":999,"REV_AT_EPOCH":4206,"BSTAR":0.00019876079,"MEAN_MOTION_DOT":0.00002687,"MEAN_MOTION_DDOT":0},{"OBJECT_NAME":"STRIX-6","OBJECT_ID":"2026-056A","EPOCH":"2026-07-21T03:55:46.440480","CLASSIFICATION_TYPE":"U","MEAN_MOTION":15.00344395,"ECCENTRICITY":0.00166113,"INCLINATION":50.2823,"RA_OF_ASC_NODE":189.16,"ARG_OF_PERICENTER":14.1052,"MEAN_ANOMALY":346.0358,"EPHEMERIS_TYPE":0,"NORAD_CAT_ID":68291,"ELEMENT_SET_NO":999,"REV_AT_EPOCH":1837,"BSTAR":0.00013511931,"MEAN_MOTION_DOT":0.00001451,"MEAN_MOTION_DDOT":0},{"OBJECT_NAME":"STRIX-7","OBJECT_ID":"2026-112A","EPOCH":"2026-07-20T21:40:09.168096","CLASSIFICATION_TYPE":"U","MEAN_MOTION":15.01633466,"ECCENTRICITY":0.00252213,"INCLINATION":44.9085,"RA_OF_ASC_NODE":15.3401,"ARG_OF_PERICENTER":238.6269,"MEAN_ANOMALY":121.2135,"EPHEMERIS_TYPE":0,"NORAD_CAT_ID":69177,"ELEMENT_SET_NO":999,"REV_AT_EPOCH":894,"BSTAR":0.00020525651,"MEAN_MOTION_DOT":0.00002489,"MEAN_MOTION_DDOT":0},{"OBJECT_NAME":"STRIX-8","OBJECT_ID":"2026-146A","EPOCH":"2026-07-21T06:14:49.932960","CLASSIFICATION_TYPE":"U","MEAN_MOTION":15.04467399,"ECCENTRICITY":0.00064462,"INCLINATION":41.9905,"RA_OF_ASC_NODE":339.4943,"ARG_OF_PERICENTER":67.3987,"MEAN_ANOMALY":292.7521,"EPHEMERIS_TYPE":0,"NORAD_CAT_ID":69701,"ELEMENT_SET_NO":999,"REV_AT_EPOCH":369,"BSTAR":0.0002479139,"MEAN_MOTION_DOT":0.00003339,"MEAN_MOTION_DDOT":0}]}
